start=new Date('2022-02-20T00:00:00.000Z').valueOf();
sats=[{"TLE_LINE1":"1 47748U 21017AC  22050.85494431  .00001143  00000-0  95585-4 0  9993","MEAN_MOTION":"15.06407218","PERIAPSIS":"546.006","INCLINATION":"53.0562","BSTAR":"0.00009558500000","OBJECT_NAME":"STARLINK-2162","MEAN_ANOMALY":"301.9663","OBJECT_ID":"2021-017AC","RA_OF_ASC_NODE":"0.3797","COUNTRY_CODE":"US","TIME_SYSTEM":"UTC","LAUNCH_DATE":"2021-03-04","EPHEMERIS_TYPE":"0","ELEMENT_SET_NO":"999","ARG_OF_PERICENTER":"58.1493","MEAN_MOTION_DOT":"0.00001143","EPOCH":"2022-02-19T20:31:07.188384","CENTER_NAME":"EARTH","APOAPSIS":"548.377","SITE":"AFETR","REF_FRAME":"TEME","CLASSIFICATION_TYPE":"U","MEAN_MOTION_DDOT":"0.0000000000000","OBJECT_TYPE":"PAYLOAD","ECCENTRICITY":"0.00017120","DECAY_DATE":null,"REV_AT_EPOCH":"5497","SEMIMAJOR_AXIS":"6925.326","MEAN_ELEMENT_THEORY":"SGP4","NORAD_CAT_ID":"47748","GP_ID":"196427590","PERIOD":"95.592","FILE":"3308986","RCS_SIZE":"LARGE","TLE_LINE2":"2 47748  53.0562   0.3797 0001712  58.1493 301.9663 15.06407218 54977"},{"CENTER_NAME":"EARTH","APOAPSIS":"548.414","MEAN_MOTION_DOT":"0.00000968","EPOCH":"2022-02-19T20:52:21.622080","ARG_OF_PERICENTER":"60.2607","ELEMENT_SET_NO":"999","TIME_SYSTEM":"UTC","LAUNCH_DATE":"2021-03-04","EPHEMERIS_TYPE":"0","RA_OF_ASC_NODE":"0.2962","COUNTRY_CODE":"US","OBJECT_NAME":"STARLINK-2163","OBJECT_ID":"2021-017AD","MEAN_ANOMALY":"299.8555","TLE_LINE1":"1 47749U 21017AD  22050.86969470  .00000968  00000-0  83886-4 0  9990","MEAN_MOTION":"15.06402725","PERIAPSIS":"545.996","INCLINATION":"53.0571","BSTAR":"0.00008388600000","TLE_LINE2":"2 47749  53.0571   0.2962 0001746  60.2607 299.8555 15.06402725 54972","FILE":"3308986","RCS_SIZE":"LARGE","GP_ID":"196427838","PERIOD":"95.592","NORAD_CAT_ID":"47749","MEAN_ELEMENT_THEORY":"SGP4","REV_AT_EPOCH":"5497","SEMIMAJOR_AXIS":"6925.340","ECCENTRICITY":"0.00017460","DECAY_DATE":null,"MEAN_MOTION_DDOT":"0.0000000000000","OBJECT_TYPE":"PAYLOAD","SITE":"AFETR","CLASSIFICATION_TYPE":"U","REF_FRAME":"TEME"},{"RCS_SIZE":"LARGE","FILE":"3308986","TLE_LINE2":"2 47750  53.0560   1.6033 0001745  60.9351 299.1813 15.06392062 54936","MEAN_ELEMENT_THEORY":"SGP4","NORAD_CAT_ID":"47750","PERIOD":"95.593","GP_ID":"196428085","ECCENTRICITY":"0.00017450","DECAY_DATE":null,"SEMIMAJOR_AXIS":"6925.373","REV_AT_EPOCH":"5493","CLASSIFICATION_TYPE":"U","REF_FRAME":"TEME","SITE":"AFETR","OBJECT_TYPE":"PAYLOAD","MEAN_MOTION_DDOT":"0.0000000000000","APOAPSIS":"548.446","CENTER_NAME":"EARTH","ELEMENT_SET_NO":"999","ARG_OF_PERICENTER":"60.9351","MEAN_MOTION_DOT":"0.00000430","EPOCH":"2022-02-19T13:58:22.189728","RA_OF_ASC_NODE":"1.6033","COUNTRY_CODE":"US","EPHEMERIS_TYPE":"0","TIME_SYSTEM":"UTC","LAUNCH_DATE":"2021-03-04","PERIAPSIS":"546.029","INCLINATION":"53.0560","BSTAR":"0.00004778800000","MEAN_MOTION":"15.06392062","TLE_LINE1":"1 47750U 21017AE  22050.58220127  .00000430  00000-0  47788-4 0  9995","OBJECT_NAME":"STARLINK-2164","OBJECT_ID":"2021-017AE","MEAN_ANOMALY":"299.1813"},{"MEAN_MOTION_DOT":"-0.00000199","EPOCH":"2022-02-19T19:28:46.124544","ELEMENT_SET_NO":"999","ARG_OF_PERICENTER":"61.3626","CENTER_NAME":"EARTH","APOAPSIS":"548.416","OBJECT_NAME":"STARLINK-2168","OBJECT_ID":"2021-017AF","MEAN_ANOMALY":"298.7536","MEAN_MOTION":"15.06395266","TLE_LINE1":"1 47751U 21017AF  22050.81164496 -.00000199  00000-0  55630-5 0  9997","PERIAPSIS":"546.040","BSTAR":"0.00000556300000","INCLINATION":"53.0555","LAUNCH_DATE":"2021-03-04","TIME_SYSTEM":"UTC","EPHEMERIS_TYPE":"0","RA_OF_ASC_NODE":"350.5476","COUNTRY_CODE":"US","GP_ID":"196428339","PERIOD":"95.592","NORAD_CAT_ID":"47751","MEAN_ELEMENT_THEORY":"SGP4","TLE_LINE2":"2 47751  53.0555 350.5476 0001716  61.3626 298.7536 15.06395266 55113","FILE":"3308986","RCS_SIZE":"LARGE","MEAN_MOTION_DDOT":"0.0000000000000","OBJECT_TYPE":"PAYLOAD","SITE":"AFETR","CLASSIFICATION_TYPE":"U","REF_FRAME":"TEME","REV_AT_EPOCH":"5511","SEMIMAJOR_AXIS":"6925.363","ECCENTRICITY":"0.00017160","DECAY_DATE":null},{"CENTER_NAME":"EARTH","APOAPSIS":"548.728","MEAN_MOTION_DOT":"0.00000486","EPOCH":"2022-02-19T20:17:11.790240","ELEMENT_SET_NO":"999","ARG_OF_PERICENTER":"59.7121","TIME_SYSTEM":"UTC","LAUNCH_DATE":"2021-03-04","EPHEMERIS_TYPE":"0","RA_OF_ASC_NODE":"5.4203","COUNTRY_CODE":"US","OBJECT_NAME":"STARLINK-2169","OBJECT_ID":"2021-017AG","MEAN_ANOMALY":"300.4089","MEAN_MOTION":"15.06409861","TLE_LINE1":"1 47752U 21017AG  22050.84527535  .00000486  00000-0  51525-4 0  9994","PERIAPSIS":"545.639","INCLINATION":"53.0540","BSTAR":"0.00005152500000","TLE_LINE2":"2 47752  53.0540   5.4203 0002230  59.7121 300.4089 15.06409861 54957","FILE":"3308986","RCS_SIZE":"LARGE","GP_ID":"196427090","PERIOD":"95.592","NORAD_CAT_ID":"47752","MEAN_ELEMENT_THEORY":"SGP4","REV_AT_EPOCH":"5495","SEMIMAJOR_AXIS":"6925.318","ECCENTRICITY":"0.00022300","DECAY_DATE":null,"MEAN_MOTION_DDOT":"0.0000000000000","OBJECT_TYPE":"PAYLOAD","SITE":"AFETR","CLASSIFICATION_TYPE":"U","REF_FRAME":"TEME"},{"ELEMENT_SET_NO":"999","ARG_OF_PERICENTER":"55.7197","EPOCH":"2022-02-19T14:55:25.286880","MEAN_MOTION_DOT":"0.00000249","APOAPSIS":"548.385","CENTER_NAME":"EARTH","BSTAR":"0.00003560500000","INCLINATION":"53.0573","PERIAPSIS":"546.055","MEAN_MOTION":"15.06397823","TLE_LINE1":"1 47753U 21017AH  22050.62182045  .00000249  00000-0  35605-4 0  9992","OBJECT_ID":"2021-017AH","MEAN_ANOMALY":"304.3951","OBJECT_NAME":"STARLINK-2170","COUNTRY_CODE":"US","RA_OF_ASC_NODE":"11.4113","EPHEMERIS_TYPE":"0","LAUNCH_DATE":"2021-03-04","TIME_SYSTEM":"UTC","NORAD_CAT_ID":"47753","MEAN_ELEMENT_THEORY":"SGP4","PERIOD":"95.592","GP_ID":"196427338","RCS_SIZE":"LARGE","FILE":"3308986","TLE_LINE2":"2 47753  53.0573  11.4113 0001682  55.7197 304.3951 15.06397823 54843","REF_FRAME":"TEME","CLASSIFICATION_TYPE":"U","SITE":"AFETR","OBJECT_TYPE":"PAYLOAD","MEAN_MOTION_DDOT":"0.0000000000000","DECAY_DATE":null,"ECCENTRICITY":"0.00016820","SEMIMAJOR_AXIS":"6925.355","REV_AT_EPOCH":"5484"},{"CENTER_NAME":"EARTH","APOAPSIS":"548.378","MEAN_MOTION_DOT":"0.00001001","EPOCH":"2022-02-19T22:10:39.077760","ELEMENT_SET_NO":"999","ARG_OF_PERICENTER":"47.2933","TIME_SYSTEM":"UTC","LAUNCH_DATE":"2021-03-04","EPHEMERIS_TYPE":"0","RA_OF_ASC_NODE":"10.0623","COUNTRY_CODE":"US","OBJECT_NAME":"STARLINK-2171","OBJECT_ID":"2021-017AJ","MEAN_ANOMALY":"312.8198","TLE_LINE1":"1 47754U 21017AJ  22050.92406340  .00001001  00000-0  86054-4 0  9994","MEAN_MOTION":"15.06402921","PERIAPSIS":"546.031","INCLINATION":"53.0572","BSTAR":"0.00008605400000","TLE_LINE2":"2 47754  53.0572  10.0623 0001695  47.2933 312.8198 15.06402921 54856","FILE":"3308986","RCS_SIZE":"LARGE","GP_ID":"196428586","PERIOD":"95.592","MEAN_ELEMENT_THEORY":"SGP4","NORAD_CAT_ID":"47754","REV_AT_EPOCH":"5485","SEMIMAJOR_AXIS":"6925.340","ECCENTRICITY":"0.00016950","DECAY_DATE":null,"MEAN_MOTION_DDOT":"0.0000000000000","OBJECT_TYPE":"PAYLOAD","SITE":"AFETR","CLASSIFICATION_TYPE":"U","REF_FRAME":"TEME"},{"APOAPSIS":"409.062","CENTER_NAME":"EARTH","EPOCH":"2022-02-19T20:58:39.195264","MEAN_MOTION_DOT":"0.00050098","ARG_OF_PERICENTER":"45.0038","ELEMENT_SET_NO":"999","EPHEMERIS_TYPE":"0","LAUNCH_DATE":"2021-03-04","TIME_SYSTEM":"UTC","COUNTRY_CODE":"US","RA_OF_ASC_NODE":"350.0866","OBJECT_ID":"2021-017AK","MEAN_ANOMALY":"315.1098","OBJECT_NAME":"STARLINK-2172","INCLINATION":"53.0539","BSTAR":"0.00079216000000","PERIAPSIS":"406.942","TLE_LINE1":"1 47755U 21017AK  22050.87406476  .00050098  00000-0  79216-3 0  9990","MEAN_MOTION":"15.52990525","TLE_LINE2":"2 47755  53.0539 350.0866 0001562  45.0038 315.1098 15.52990525 54499","RCS_SIZE":"LARGE","FILE":"3308569","PERIOD":"92.724","GP_ID":"196396826","NORAD_CAT_ID":"47755","MEAN_ELEMENT_THEORY":"SGP4","SEMIMAJOR_AXIS":"6786.137","REV_AT_EPOCH":"5449","DECAY_DATE":null,"ECCENTRICITY":"0.00015620","OBJECT_TYPE":"PAYLOAD","MEAN_MOTION_DDOT":"0.0000000000000","CLASSIFICATION_TYPE":"U","REF_FRAME":"TEME","SITE":"AFETR"},{"COUNTRY_CODE":"US","RA_OF_ASC_NODE":"10.0846","EPHEMERIS_TYPE":"0","TIME_SYSTEM":"UTC","LAUNCH_DATE":"2021-03-04","INCLINATION":"53.0552","BSTAR":"0.00010451000000","PERIAPSIS":"546.107","TLE_LINE1":"1 47756U 21017AL  22050.92037778  .00001276  00000-0  10451-3 0  9992","MEAN_MOTION":"15.06402556","MEAN_ANOMALY":"297.7757","OBJECT_ID":"2021-017AL","OBJECT_NAME":"STARLINK-2174","APOAPSIS":"548.304","CENTER_NAME":"EARTH","ELEMENT_SET_NO":"999","ARG_OF_PERICENTER":"62.3393","EPOCH":"2022-02-19T22:05:20.640192","MEAN_MOTION_DOT":"0.00001276","DECAY_DATE":null,"ECCENTRICITY":"0.00015860","SEMIMAJOR_AXIS":"6925.341","REV_AT_EPOCH":"5489","REF_FRAME":"TEME","CLASSIFICATION_TYPE":"U","SITE":"AFETR","OBJECT_TYPE":"PAYLOAD","MEAN_MOTION_DDOT":"0.0000000000000","RCS_SIZE":"LARGE","FILE":"3308986","TLE_LINE2":"2 47756  53.0552  10.0846 0001586  62.3393 297.7757 15.06402556 54890","MEAN_ELEMENT_THEORY":"SGP4","NORAD_CAT_ID":"47756","PERIOD":"95.592","GP_ID":"196427591"},{"MEAN_MOTION_DOT":"0.00001360","EPOCH":"2022-02-19T21:44:06.199584","ELEMENT_SET_NO":"999","ARG_OF_PERICENTER":"54.4261","CENTER_NAME":"EARTH","APOAPSIS":"548.431","OBJECT_NAME":"STARLINK-2175","MEAN_ANOMALY":"305.6894","OBJECT_ID":"2021-017AM","MEAN_MOTION":"15.06406034","TLE_LINE1":"1 47757U 21017AM  22050.90562731  .00001360  00000-0  11017-3 0  9996","PERIAPSIS":"545.960","INCLINATION":"53.0551","BSTAR":"0.00011017000000","TIME_SYSTEM":"UTC","LAUNCH_DATE":"2021-03-04","EPHEMERIS_TYPE":"0","RA_OF_ASC_NODE":"10.1513","COUNTRY_CODE":"US","GP_ID":"196427839","PERIOD":"95.592","NORAD_CAT_ID":"47757","MEAN_ELEMENT_THEORY":"SGP4","TLE_LINE2":"2 47757  53.0551  10.1513 0001784  54.4261 305.6894 15.06406034 54838","FILE":"3308986","RCS_SIZE":"LARGE","MEAN_MOTION_DDOT":"0.0000000000000","OBJECT_TYPE":"PAYLOAD","SITE":"AFETR","REF_FRAME":"TEME","CLASSIFICATION_TYPE":"U","REV_AT_EPOCH":"5483","SEMIMAJOR_AXIS":"6925.330","ECCENTRICITY":"0.00017840","DECAY_DATE":null}];
